C/2014 R3 (PANSTARRS),e,90.9229,334.0952,113.4444,13479,0.0000006,0.99946035,0.0000,08/08.9251/2016,2000,g  6.5,4.0
# From MPC 91615
P/2014 R5 (Lemmon-PANSTARRS),e,1.0883,126.5577,213.7270,4.056413,0.1206399,0.41360959,293.1623,02/11.0/2021,2000,g 15.0,4.0
# From MPC104790
C/2014 S2 (PANSTARRS),e,64.5223,8.1596,87.2920,169.5705,0.0004464,0.98773502,0.0000,12/09.1137/2015,2000,g 10.0,4.0
# From MPC 91616
P/2014 U4 (PANSTARRS),e,6.4291,11.8905,347.7373,3.506406,0.1501104,0.46495028,359.6242,02/11.0/2021,2000,g 18.0,4.0
# From MPC 95211
P/2014 V1 (PANSTARRS),e,22.5185,166.2011,177.5720,5.481189,0.0768054,0.53422749,169.7802,02/11.0/2021,2000,g 14.0,4.0
# From MPC 93586
P/2014 W1 (PANSTARRS),e,8.8382,246.2455,152.2367,4.461838,0.1045763,0.38869514,251.0085,02/11.0/2021,2000,g 15.5,4.0
# From MPC110493
C/2014 W2 (PANSTARRS),e,82.0698,69.9877,84.9375,559.9258,0.0000744,0.99522401,0.0000,03/07.8709/2016,2000,g  7.5,4.0
# From MPEC 2021-BE3
C/2014 W2 (PANSTARRS),e,82.0697,69.9877,84.9375,560.0085,0.0000744,0.99522472,0.0000,03/07.8708/2016,2000,g  7.5,4.0
# From MPC105542
P/2014 W4 (PANSTARRS),e,15.2729,33.3565,67.8354,6.598625,0.0581465,0.35207373,108.7372,02/11.0/2021,2000,g 11.0,4.0
# From MPEC 2021-BE3
C/2014 W8 (PANSTARRS),e,41.9341,224.7896,228.1285,177.5064,0.0004168,0.97179840,0.0000,09/09.4241/2015,2000,g 11.0,4.0
# From MPC115880
C/2014 W10 (PANSTARRS),e,82.8844,43.0999,43.6491,809.4645,0.0000428,0.99064345,0.0000,03/04.2556/2016,2000,g  8.0,4.0
# From MPC 93587
P/2014 W12 (Gibbs),e,8.5140,299.2903,36.8892,3.519444,0.1492770,0.52420054,340.8498,02/11.0/2021,2000,g 15.0,4.0
# From MPC 94281
P/2014 X1 (Elenin),e,26.0053,61.5079,33.9703,6.209632,0.0636950,0.70854799,142.2445,02/11.0/2021,2000,g 15.0,4.0
# From MPC100579
C/2014 Y1 (PANSTARRS),h,01/15.8412/2016,14.9060,19.5708,182.3191,1.001362,2.254269,2000,9.5,4.0
# From MPEC 2021-BE3
C/2015 A2 (PANSTARRS),h,08/30.6608/2015,108.8188,258.4926,212.5895,1.004079,5.247722,2000,10.5,4.0
# From MPEC 2021-BE3
P/2015 A3 (PANSTARRS),e,172.5221,277.1733,249.6072,7.431475,0.0486510,0.84411334,106.2960,02/11.0/2021,2000,g 20.0,4.0
# From MPC 99270
P/2015 B1 (PANSTARRS),e,18.0317,353.0100,188.8520,9.499236,0.0336644,0.36826450,66.5151,02/11.0/2021,2000,g  8.5,4.0
# From MPC108592
C/2015 B2 (PANSTARRS),e,104.9903,341.8481,284.7197,18191,0.0000004,0.99981469,0.0000,05/05.3905/2016,2000,g  9.5,4.0
# From MPC109141
P/2015 B4 (Lemmon-PANSTARRS),e,1.7599,266.0249,227.4683,8.531807,0.0395496,0.56021991,86.9620,02/11.0/2021,2000,g 11.0,4.0
# From MPC101096
P/2015 C1 (TOTAS-Gibbs),e,13.8922,348.8192,178.3171,6.584644,0.0583318,0.56026108,123.4684,02/11.0/2021,2000,g 12.5,4.0
# From MPC119995
C/2015 D3 (PANSTARRS),h,05/02.4460/2016,128.5489,157.0611,2.9540,1.003600,8.143828,2000,5.5,4.0
# From MPC109141
P/2015 D5 (Kowalski),e,20.5009,74.0599,39.8846,8.970630,0.0366834,0.48881628,92.0206,02/11.0/2021,2000,g  9.0,4.0
# From MPC 96866
P/2015 D6 (Lemmon-PANSTARRS),e,20.2019,46.0188,125.1823,7.145123,0.0516047,0.36189469,105.7711,02/11.0/2021,2000,g 10.5,4.0
# From MPC112390
C/2015 ER61 (PANSTARRS),e,6.3374,235.1509,68.3188,497.0122,0.0000890,0.99790088,0.0000,05/10.4804/2017,2000,g 11.0,2.0
# From MPEC 2018-BF5
C/2015 E61-B (PANSTARRS),e,6.3389,235.1861,68.4080,1418,0.0000185,0.99926310,0.0000,05/10.4581/2017,2000,g 13.5,2.0
# From MPC109142
P/2015 F1 (PANSTARRS),e,2.8025,40.3909,187.4656,3.522773,0.1490655,0.27802635,321.4574,02/11.0/2021,2000,g 12.5,4.0
# From MPC117068
C/2015 H2 (PANSTARRS),h,09/14.2312/2016,33.6533,350.6771,288.1047,1.005665,4.978723,2000,7.5,4.0
# From MPC100280
P/2015 HG16 (PANSTARRS),e,18.7957,58.8007,47.4245,4.748409,0.0952537,0.35136577,231.0012,02/11.0/2021,2000,g 12.5,4.0
# From MPEC 2021-BE3
P/2015 J3 (NEOWISE),e,8.1309,111.3511,129.4547,3.347965,0.1608913,0.55434872,348.7104,02/11.0/2021,2000,g 16.5,4.0
# From MPC 95213
P/2015 K5 (PANSTARRS),e,39.9449,134.1753,106.3397,6.720884,0.0565672,0.55344385,117.5207,02/11.0/2021,2000,g 13.5,4.0
# From MPC107684
P/2015 M2 (PANSTARRS),e,3.9727,86.5835,225.4647,7.229243,0.0507066,0.18104383,100.4659,02/11.0/2021,2000,g  8.5,4.0
# From MPC112390
C/2015 O1 (PANSTARRS),h,02/19.6404/2018,127.2253,299.8516,89.6296,1.001139,3.729137,2000,6.5,4.0
# From MPC 99819
P/2015 P4 (PANSTARRS),e,8.7177,104.7594,280.5689,6.049449,0.0662415,0.58468024,122.4851,02/11.0/2021,2000,g 14.0,4.0
# From MPC102952
P/2015 PD229 (Cameron-ISON),e,2.0263,342.6326,352.4498,7.182487,0.0512026,0.32817028,102.7193,02/11.0/2021,2000,g 11.5,2.0
# From MPC 99819
P/2015 Q1 (Scotti),e,22.3828,202.9094,199.8380,3.474062,0.1522116,0.47825573,304.0451,02/11.0/2021,2000,g 14.0,4.0
# From MPC 96867
P/2015 Q2 (Pimentel),e,146.4957,228.4202,244.4889,7.347942,0.0494829,0.75081808,98.2321,02/11.0/2021,2000,g 15.5,4.0
# From MPC 98562
P/2015 R1 (PANSTARRS),e,22.6793,48.4280,300.4302,5.880374,0.0691189,0.63412466,142.0298,02/11.0/2021,2000,g 14.0,4.0
# From MPC 95734
P/2015 R2 (PANSTARRS),e,15.4801,168.5997,149.7584,4.488321,0.1036521,0.45286506,214.6153,02/11.0/2021,2000,g 14.5,4.0
# From MPC117068
C/2015 T2 (PANSTARRS),e,124.5518,51.0252,30.6553,1951,0.0000114,0.99644451,0.0000,05/18.3869/2017,2000,g  8.0,4.0
# From MPC 96280
P/2015 T3 (PANSTARRS),e,13.0937,120.5019,178.6330,4.326181,0.1095335,0.50818108,359.9227,12/21.0/2014,2000,g 14.0,4.0
# From MPC102953
C/2015 T4 (PANSTARRS),e,87.9982,251.8304,270.0720,79.71911,0.0013847,0.97115167,0.0000,06/16.8053/2016,2000,g 11.0,4.0
# From MPC102097
C/2015 T5 (Sheppard-Tholen),e,11.0503,311.0704,61.8568,28.17655,0.0065898,0.66876018,12.1585,02/11.0/2021,2000,g  7.5,4.0
# From MPC102953
P/2015 TO19 (Lemmon-PANSTARRS),e,6.4995,321.6518,89.1272,4.555996,0.1013512,0.35814382,182.8143,02/11.0/2021,2000,g 14.0,4.0
# From MPC110080
P/2015 TP200 (LINEAR),e,8.7773,6.9981,82.6091,7.275141,0.0502275,0.53497739,78.7526,02/11.0/2021,2000,g 11.0,4.0
# From MPC101097
C/2015 TQ209 (LINEAR),e,11.3035,223.3656,282.1500,576.8978,0.0000711,0.99754517,0.0000,08/25.3116/2016,2000,g 10.5,4.0
# From MPC115881
C/2015 V1 (PANSTARRS),e,139.2240,197.1834,179.6200,2321,0.0000088,0.99816060,0.0000,12/16.8359/2017,2000,g  6.5,4.0
# From MPC112390
C/2015 V2 (Johnson),h,06/11.8693/2017,49.8537,69.9018,165.0010,1.001864,1.644412,2000,5.0,4.0
# From MPC104791
C/2015 V4 (PANSTARRS),e,60.7867,179.9359,306.9717,18.47238,0.0124142,0.70440771,20.2077,02/11.0/2021,2000,g  8.5,4.0
# From MPEC 2021-BE3
C/2015 VL62 (Lemmon-Yeung-PANSTARRS),h,08/27.8755/2017,165.8169,95.1060,128.8023,1.001230,2.718223,2000,8.0,4.0
# From MPC102098
C/2015 WZ (PANSTARRS),e,134.6292,40.1924,66.7525,147.2154,0.0005518,0.99061797,0.0000,04/13.7284/2016,2000,g 15.0,4.0
# From MPC109142
C/2015 W1 (Gibbs),e,87.3620,114.3163,48.1668,2716,0.0000070,0.99917410,0.0000,05/13.6627/2016,2000,g 13.0,4.0
# From MPC101098
P/2015 W2 (Catalina),e,11.6070,294.2510,117.4967,7.295835,0.0500140,0.63391419,98.0414,02/11.0/2021,2000,g 13.0,4.0
# From MPC101098
P/2015 X1 (PANSTARRS),e,12.1515,161.7682,218.9321,3.631993,0.1423923,0.41902479,278.3830,02/11.0/2021,2000,g 16.0,4.0
# From MPEC 2020-AA5
C/2015 XY1 (Lemmon),h,04/27.5536/2018,148.8544,281.6200,196.2203,1.002595,7.923658,2000,5.5,4.0
# From MPC100281
C/2015 X2 (Catalina),e,72.0746,101.0991,42.3256,15.77042,0.0157376,0.87781446,29.6258,02/11.0/2021,2000,g 16.0,4.0
# From MPC 97498
P/2015 X3 (PANSTARRS),e,24.3872,77.3125,306.6558,5.009289,0.0879103,0.43890657,177.0358,02/11.0/2021,2000,g 15.0,4.0
# From MPC119995
C/2015 X5 (PANSTARRS),h,12/29.2432/2017,124.3082,122.3461,27.6465,1.001677,6.796870,2000,7.5,4.0
# From MPC115881
P/2015 X6 (PANSTARRS),e,4.5647,106.9471,329.8647,2.753393,0.2157256,0.17260252,25.2147,02/11.0/2021,2000,g 16.0,4.0
# From MPC109143
C/2015 X7 (ATLAS),e,57.5597,139.9312,348.3731,9144,0.0000011,0.99959749,0.0000,07/29.1101/2016,2000,g  9.0,4.0
# From MPC109143
C/2015 Y1 (LINEAR),e,71.1633,135.8185,24.6550,241.0697,0.0002633,0.98956214,0.0000,05/13.3958/2016,2000,g 12.0,4.0
# From MPC119995
C/2016 A1 (PANSTARRS),h,11/22.4176/2017,121.2052,128.2081,10.2278,1.001147,5.322219,2000,6.0,4.0
# From MPC100282
P/2016 A2 (Christensen),e,26.4059,291.6154,141.4858,4.751475,0.0951615,0.27062944,196.5335,02/11.0/2021,2000,g 11.5,4.0
# From MPC115881
P/2016 A3 (PANSTARRS),e,8.5100,187.2532,341.0125,7.889748,0.0444743,0.38702648,61.5510,02/11.0/2021,2000,g 10.0,4.0
# From MPEC 2021-BE3
C/2016 A6 (PANSTARRS),e,120.9442,300.3735,141.0126,223.6335,0.0002947,0.98926598,0.0000,11/06.6866/2015,2000,g 15.0,4.0
# From MPC102098
P/2016 A7 (PANSTARRS),e,16.6183,221.4899,352.6232,5.032226,0.0873100,0.56507582,158.3699,02/11.0/2021,2000,g 16.0,4.0
# From MPEC 2021-BE3
C/2016 A8 (LINEAR),e,148.2430,111.3424,130.4335,34.32596,0.0049008,0.94493591,7.9730,02/11.0/2021,2000,g 12.0,4.0
# From MPC107048
C/2016 B1 (NEOWISE),e,50.4483,232.0116,8.6861,439.2583,0.0001071,0.99267745,0.0000,12/04.5153/2016,2000,g  9.5,4.0
# From MPC109143
P/2016 BA14 (PANSTARRS),e,18.8936,180.5283,351.8904,3.025203,0.1873149,0.66521678,336.3375,02/11.0/2021,2000,g 21.0,4.0
# From MPC110494
C/2016 C1 (PANSTARRS),h,02/18.1665/2016,56.2363,181.8209,328.7168,1.001702,8.463580,2000,5.5,4.0
# From MPC101098
C/2016 C2 (NEOWISE),e,38.0356,24.4283,214.5818,65.95916,0.0018399,0.97620278,0.0000,04/19.1105/2016,2000,g 16.0,4.0
# From MPC110494
C/2016 E1 (PANSTARRS),h,06/04.4075/2017,131.8860,233.0839,47.4792,1.006294,8.178969,2000,6.5,4.0
# From MPC 99821
C/2016 E2 (Kowalski),e,135.8838,186.9363,321.9636,140.4784,0.0005920,0.99235688,0.0000,02/07.2892/2016,2000,g 20.0,4.0
# From MPC102098
P/2016 G1 (PANSTARRS),e,10.9677,204.0416,111.2201,2.583555,0.2373436,0.21121079,350.6978,02/11.0/2021,2000,g 14.0,4.0
# From MPEC 2017-D91
P/2016 J1-A (PANSTARRS),e,14.3261,199.8138,46.9284,3.173642,0.1743280,0.22806605,294.7184,02/11.0/2021,2000,g 16.5,4.0
# From MPEC 2017-A77
P/2016 J1-B (PANSTARRS),e,14.3289,199.8187,46.8195,3.173272,0.1743585,0.22791689,294.8448,02/11.0/2021,2000,g 17.0,4.0
# From MPC101099
